{"version": 0.6, "generator": "Overpass API 0.7.60.6 e2dc3e5b", "osm3s": {"timestamp_osm_base": "2023-06-26T05:50:15Z", "copyright": "The data included in this document is from www.openstreetmap.org. The data is made available under ODbL."}, "elements": [{"type": "node", "id": 1767282112, "lat": 40.6995169, "lon": -73.9921607, "tags": {"addr:city": "Brooklyn", "addr:housenumber": "50", "addr:postcode": "11201", "addr:street": "Henry Street", "amenity": "bar", "cuisine": "sandwich;brunch;coffee_shop", "name": "Brooklyn Heights Wine Bar", "outdoor_seating": "street", "phone": "+1-718-855-5595", "website": "https://brooklynheightswinebar.com"}}, {"type": "node", "id": 2123472747, "lat": 40.7259033, "lon": -74.0094874, "tags": {"addr:city": "New York", "addr:housenumber": "326", "addr:postcode": "10013", "addr:street": "Spring Street", "amenity": "bar", "name": "Ear Inn", "wheelchair": "limited", "wikidata": "Q6130360"}}, {"type": "node", "id": 2244694465, "lat": 40.7224339, "lon": -73.9899014, "tags": {"addr:city": "New York", "addr:country": "US", "addr:housenumber": "235", "addr:state": "NY", "addr:street": "Eldridge Street", "amenity": "bar", "name": "bOb Bar", "opening_hours": "We-Sa 19:00-04:00; Su 19:00-02:00", "payment:credit_cards": "yes", "phone": "+1-212-529-1807", "source": "+1 212-529-1807", "toilets": "yes", "website": "https://www.bobbarnyc.com/"}}, {"type": "node", "id": 2244743660, "lat": 40.7143873, "lon": -73.9981634, "tags": {"addr:city": "New York", "addr:country": "US", "addr:housenumber": "9", "addr:state": "NY", "addr:street": "Doyers Street", "amenity": "bar", "name": "Apoth\u00e9ke", "opening_hours": "Mo-Su 18:30-02:00", "source": "+1 212-406-0400", "website": "https://www.apothekenyc.com/"}}, {"type": "node", "id": 2351282630, "lat": 40.7231111, "lon": -74.0029527, "tags": {"addr:housenumber": "363", "addr:postcode": "10013", "addr:street": "West Broadway", "alt_name": "Kenn\u2019s Broome Street Bar", "amenity": "bar", "cocktails": "yes", "contact:facebook": "Kenns-Broome-Street-Bar-189607137742744", "contact:instagram": "broomestreetbar", "contact:phone": "+1 212-925-2806", "drink:beer": "draught", "level": "0", "name": "Broome Street Bar", "opening_hours": "Mo-Th, Su 11:00-01:30; Fr, Sa 11:00-14:30", "toilets": "yes", "wheelchair": "yes"}}, {"type": "node", "id": 2494312443, "lat": 40.6992809, "lon": -73.9922822, "tags": {"addr:housenumber": "60", "addr:postcode": "11201", "addr:street": "Henry Street", "amenity": "bar", "cocktails": "yes", "cuisine": "eclectic", "drink:beer": "draught", "drink:liquor": "yes", "drink:wine": "yes", "name": "The Binc", "opening_hours": "Mo-Su 17:00-01:00", "opening_hours:kitchen": "Mo-Su 17:00-22:30", "phone": "+1-718-624-1444"}}, {"type": "node", "id": 2495735668, "lat": 40.7153863, "lon": -73.990065, "tags": {"addr:city": "New York", "addr:housenumber": "21", "addr:postcode": "10002", "addr:street": "Essex Street", "amenity": "bar", "min_age": "21", "name": "Clockwork Bar", "opening_hours": "Mo-Su 14:00-04:00", "website": "http://clockworknyc.com/"}}, {"type": "node", "id": 2547055660, "lat": 40.7258666, "lon": -73.9894282, "tags": {"alt_name": "Bastard Burgers", "amenity": "bar", "cuisine": "burger", "diet:vegan": "yes", "drink:beer": "draught", "drink:wine": "yes", "name": "Bronx Brewery", "opening_hours": "Mo-Th 16:00-23:00; Fr 16:00-24:00; Sa 12:00-24:00; Su 12:00-23:00", "opening_hours:kitchen": "Mo-Th 16:00-22:00; Fr 16:00-23:00; Sa 12:00-23:00; Su 12:00-22:00", "website": "https://thebronxbrewery.com/breweries-in-manhattan/"}}, {"type": "node", "id": 2547466260, "lat": 40.719827, "lon": -73.9994807, "tags": {"addr:housenumber": "158", "addr:postcode": "10013", "addr:street": "Lafayette Street", "amenity": "bar", "name": "The Ship", "opening_hours": "Mo-We 18:00-01:00; Th-Sa 18:00-03:00"}}, {"type": "node", "id": 2547684104, "lat": 40.7212174, "lon": -73.9924737, "tags": {"amenity": "bar", "name": "Ray's", "outdoor_seating": "sidewalk;street"}}, {"type": "node", "id": 2555123891, "lat": 40.7193178, "lon": -73.9915172, "tags": {"addr:city": "New York", "addr:housenumber": "53", "addr:postcode": "10002", "addr:state": "NY", "addr:street": "Delancey Street", "amenity": "bar", "check_date": "2023-03-22", "indoor_seating": "yes", "level": "0", "name": "Paint 'N Pour", "opening_hours": "Mo-We 12:00-23:00; Th 12:00-01:00; Fr, Sa 12:00-02:00; Su 12:00-20:00", "outdoor_seating": "no", "phone": "+1 212-804-7037", "website": "https://www.paintnpournyc.com/locations/lower-east-side", "wheelchair": "yes"}}, {"type": "node", "id": 2555126634, "lat": 40.7228611, "lon": -73.9890352, "tags": {"addr:city": "New York", "addr:housenumber": "159", "addr:postcode": "10002", "addr:state": "NY", "addr:street": "East Houston Street", "amenity": "bar", "description": "A 1960\u2019s Irish residence inspired bar.", "email": "info@thelatelate.com", "min_age": "21", "name": "The Late Late", "opening_hours": "We-Th 16:00-02:00; Fr-Sa 16:00-04:00; Su 16:00-24:00", "phone": "+1-212-633-2000", "website": "http://thelatelate.com"}}, {"type": "node", "id": 2555126662, "lat": 40.721622, "lon": -73.9887536, "tags": {"addr:housenumber": "82", "addr:postcode": "10002", "addr:street": "Stanton Street", "amenity": "bar", "name": "82 Stanton"}}, {"type": "node", "id": 2565702295, "lat": 40.7201805, "lon": -74.009907, "tags": {"addr:housenumber": "71", "addr:postcode": "10013", "addr:street": "North Moore Street", "amenity": "bar", "name": "Yves"}}, {"type": "node", "id": 2567547059, "lat": 40.7213285, "lon": -73.9883827, "tags": {"addr:housenumber": "95", "addr:postcode": "10002", "addr:street": "Stanton Street", "amenity": "bar", "name": "Arlene's Grocery", "name:en": "Arlene's Grocery", "opening_hours": "Mo-Fr 16:00-04:00; Sa, Su 14:00-04:00", "phone": "+1-212-358-1633", "website": "https://arlenesgrocery.net/", "wheelchair": "yes", "wikidata": "Q4792130"}}, {"type": "node", "id": 2567557167, "lat": 40.7188615, "lon": -73.9902614, "tags": {"addr:housenumber": "77", "addr:postcode": "10002", "addr:street": "Delancey Street", "amenity": "bar", "cocktails": "yes", "cuisine": "seafood", "drink:beer": "yes", "drink:liquor": "yes", "drink:wine": "yes", "name": "Grey Lady", "opening_hours": "Mo 16:00-24:00; Tu,We 12:00-02:00; Th,Fr 12:00-04:00; Sa 11:00-04:00; Su 11:00-12:00", "phone": "+1-646-580-5239", "website": "https://www.greyladynyc.com"}}, {"type": "node", "id": 2681488531, "lat": 40.7247017, "lon": -73.9960259, "tags": {"amenity": "bar", "name": "puck fair"}}, {"type": "node", "id": 2825288971, "lat": 40.7143387, "lon": -73.9980744, "tags": {"addr:housenumber": "5", "addr:postcode": "10013", "addr:street": "Doyers Street", "amenity": "bar", "cuisine": "chinese", "name": "Peachy's", "opening_hours": "Mo-Su 18:00-00:00", "phone": "+1-646-895-9301", "website": "https://www.peachys.nyc"}}, {"type": "node", "id": 2826436147, "lat": 40.7124273, "lon": -73.9942509, "tags": {"addr:city": "New York", "addr:housenumber": "40", "addr:postcode": "10002", "addr:state": "NY", "addr:street": "Market Street", "amenity": "bar", "brewery": "labatt", "cocktails": "yes", "description": "Unassuming watering hole featuring Chinese-inspired cocktails and bar bites, plus a jukebox.", "drink:beer": "served", "drink:wine": "served", "email": "info@mrfongsnyc.com", "indoor_seating": "yes", "min_age": "21", "name": "Mr. Fong's", "opening_hours": "Mo-Su 16:00-04:00", "outdoor_seating": "yes", "phone": "+1-646-964-4540", "toilets": "yes", "website": "https://mrfongs.com"}}, {"type": "node", "id": 2826496744, "lat": 40.7145211, "lon": -73.9916621}, {"type": "node", "id": 2826496745, "lat": 40.7145363, "lon": -73.9914562}, {"type": "node", "id": 2826496748, "lat": 40.7145549, "lon": -73.9916449}, {"type": "node", "id": 2826496755, "lat": 40.7145874, "lon": -73.9914302}, {"type": "node", "id": 2826496756, "lat": 40.7145902, "lon": -73.9915568}, {"type": "node", "id": 2826496757, "lat": 40.7145934, "lon": -73.9914899}, {"type": "node", "id": 2826496760, "lat": 40.7146034, "lon": -73.9914848}, {"type": "node", "id": 2826496762, "lat": 40.7146082, "lon": -73.9916179}, {"type": "node", "id": 2826496763, "lat": 40.71461, "lon": -73.9915467}, {"type": "node", "id": 3212413599, "lat": 40.718413, "lon": -73.9899521, "tags": {"amenity": "bar", "cuisine": "charcuterie", "drink:beer": "yes", "drink:wine": "yes", "name": "Top Hops Beer Shop", "opening_hours": "Mo-We 13:00-24:00; Th 13:00-01:00; Fr-Sa 12:00-02:00; Su 12:00-22:00", "phone": "+1-212-254-4677", "shop": "alcohol", "website": "https://www.tophops.com"}}, {"type": "node", "id": 3212413922, "lat": 40.7183027, "lon": -73.9905315, "tags": {"addr:city": "New York", "addr:housenumber": "266", "addr:postcode": "10002", "addr:state": "NY", "addr:street": "Broome Street", "alt_name": "EPR", "amenity": "bar", "atm": "yes", "cocktails": "yes", "description": "Craft beer on tap and cocktails in a laid-back neighborhood hangout with table shuffleboard.", "drink:beer": "draught", "drink:liquor": "yes", "drink:wine": "yes", "name": "Emma Peel Room", "old_name": "RPM Bar", "opening_hours": "Mo-Th 16:00-04:00; Sa-Su 13:00-04:00", "phone": "+1-646-918-6529", "sport": "table_shuffleboard"}}, {"type": "node", "id": 3450976122, "lat": 40.703439, "lon": -74.0106749, "tags": {"addr:city": "New York", "addr:housenumber": "36", "addr:postcode": "10004", "addr:state": "NY", "addr:street": "Water Street", "alt_name": "Porterhouse Bar", "amenity": "bar", "name": "The Porterhouse Brew Co", "opening_hours": "Mo-Fr 11:00-22:00", "outdoor_seating": "yes", "website": "http://www.zigolinis.com", "wheelchair": "no"}}, {"type": "node", "id": 3822494060, "lat": 40.7196519, "lon": -73.9950239, "tags": {"addr:housenumber": "349", "addr:postcode": "10013", "addr:street": "Broome Street", "amenity": "bar", "cocktails": "yes", "cuisine": "mexican", "drink:liquor": "yes", "name": "The Garret Cocteler\u00eda", "outdoor_seating": "yes"}}, {"type": "node", "id": 4146280790, "lat": 40.7188823, "lon": -73.9913742, "tags": {"addr:housenumber": "134", "addr:street": "Eldridge Street", "amenity": "bar", "name": "Attaboy", "opening_hours": "Mo-Su 18:00-04:00"}}, {"type": "node", "id": 4146329489, "lat": 40.719067, "lon": -73.9976412, "tags": {"addr:housenumber": "149", "addr:street": "Mulberry Street", "amenity": "bar", "name": "Mulberry Project", "opening_hours": "Mo-Su 18:00-04:00"}}, {"type": "node", "id": 4146329589, "lat": 40.7218093, "lon": -73.9979174, "tags": {"addr:housenumber": "212", "addr:street": "Lafayette Street", "amenity": "bar", "name": "Apr\u00e8s-Ski Fondue Chalet at Caf\u00e9 Select"}}, {"type": "node", "id": 4184497397, "lat": 40.7199472, "lon": -74.007213, "tags": {"addr:housenumber": "25", "addr:street": "North Moore Street", "amenity": "bar", "name": "Brandy Library", "phone": "+1 212 2265545", "website": "http://www.brandylibrary.com"}}, {"type": "node", "id": 4278152903, "lat": 40.7203391, "lon": -73.993321, "tags": {"addr:housenumber": "10", "addr:postcode": "10002", "amenity": "bar", "cuisine": "mexican", "name": "Tampico", "name:en": "One Mile House", "opening_hours": "Tu-Fr 15:00-04:00; Mo 15:00-02:00; Sa 13:00-04:00; Su 13:00-00:00", "phone": "+16465590702", "website": "http://www.onemilehousenyc.com"}}, {"type": "node", "id": 4318995690, "lat": 40.7258737, "lon": -73.9889342, "tags": {"amenity": "bar", "name": "Boiler Bar", "opening_hours": "Mo-Su 13:00-23:00"}}, {"type": "node", "id": 4475036592, "lat": 40.7218111, "lon": -73.9882321, "tags": {"addr:postcode": "10002", "amenity": "bar", "name": "Mr Purple", "opening_hours": "We 11:00-03:00; Th-Sa 11:00-04:00; Su-Tu 11:00-02:00", "phone": "2122371790", "website": "https://www.mrpurplenyc.com/"}}, {"type": "node", "id": 4762006023, "lat": 40.7080962, "lon": -74.0146254, "tags": {"addr:housenumber": "90", "addr:postcode": "10006", "addr:street": "Washington Street", "amenity": "bar", "name": "Clinton Hall", "opening_hours": "Th-Sa 11:30-02:00; Su-We 11:30-00:00", "outdoor_seating": "yes", "phone": "+12123636000", "toilets": "yes", "website": "http://www.clintonhaklny.com", "wheelchair": "yes"}}, {"type": "node", "id": 4848258522, "lat": 40.7249654, "lon": -73.9925829, "tags": {"addr:housenumber": "310", "addr:postcode": "10012", "addr:street": "Bowery", "amenity": "bar", "cocktails": "yes", "cuisine": "pizza", "drink:beer": "draught", "drink:liquor": "yes", "drink:wine": "yes", "name": "310 Bowery Bar", "opening_hours": "Tu-Th 17:00-02:00; Fr 17:00-04:00; Sa 12:00-04:00; Su 12:00-24:00", "opening_hours:signed": "no", "phone": "+1-917-409-3036", "website": "https://www.310bowery.nyc"}}, {"type": "node", "id": 4850205425, "lat": 40.7073416, "lon": -74.0027202, "tags": {"addr:housenumber": "212", "addr:postcode": "10038", "addr:street": "Front Street", "amenity": "bar", "cuisine": "mexican", "name": "Taco Playa", "opening_hours": "24/7", "phone": "+12127327600", "website": "https://www.vbarandcompany.com/", "wheelchair": "no"}}, {"type": "node", "id": 4850227823, "lat": 40.7076703, "lon": -74.0020534, "tags": {"addr:postcode": "10038", "amenity": "bar", "name": "Jeremy's Ale House", "name:en": "Jeremy's Ale House", "opening_hours": "Mo-Fr 08:00-00:00; Sa 10:00-00:00; Su 12:00-00:00", "phone": "+12129643537", "website": "https://www.jeremysalehouse.com/", "wheelchair": "no"}}, {"type": "node", "id": 4851671822, "lat": 40.723084, "lon": -73.9897897, "tags": {"addr:housenumber": "145", "addr:postcode": "10002", "addr:street": "East Houston Street", "amenity": "bar", "brewery": "finback;allagash;evil_twin;founders;guinness;harpoon;lagunitas;westbrook", "happy_hours": "Mo-Fr 11:00-18:00", "internet_access": "wlan", "internet_access:ssid": "Fools Gold Guest", "lunch": "Mo-Su 11:00-16:00", "name": "Fools Gold", "opening_hours": "Mo-Su 11:00-04:00", "payment:credit_cards": "yes", "payment:debit_cards": "yes", "phone": "+1-212-673-2337", "toilets": "yes", "toilets:access": "permissive", "toilets:unisex": "yes", "toilets:wheelchair": "yes", "website": "http://www.foolsgoldnyc.com", "wheelchair": "yes"}}, {"type": "node", "id": 4956041076, "lat": 40.7199998, "lon": -73.9938278, "tags": {"addr:housenumber": "1", "addr:postcode": "10002", "addr:street": "Delancy Street", "amenity": "bar", "cocktails": "yes", "cuisine": "seafood", "drink:beer": "draught", "drink:coffee": "yes", "drink:espresso": "yes", "drink:liquor": "yes", "drink:wine": "yes", "name": "Sel Rrose", "opening_hours": "Su 10:00-15:00,16:00-02:00; Mo 09:00-15:00,16:00-02:00; Tu-Th 09:00-15:00,16:00-03:00; Fr-Sa 09:00-15:00,16:00-04:00", "outdoor_seating": "sidewalk", "phone": "+1-212-226-2510", "website": "https://selrrose.com"}}, {"type": "node", "id": 4957663866, "lat": 40.7149555, "lon": -74.0153365, "tags": {"addr:city": "New York", "addr:housenumber": "102", "addr:postcode": "10282", "addr:street": "North End Avenue", "amenity": "bar", "level": "16", "name": "Loopy Doopy Rooftop Bar", "opening_hours": "Su-Th 12:00-24:00; Fr-Sa 12:00-01:00", "operator": "Conrad New York", "phone": "+1 646-769-4250", "website": "https://www.conradnewyork.com/dine/loopy-doopy-rooftop-bar/", "wheelchair": "yes"}}, {"type": "node", "id": 5178500822, "lat": 40.7108198, "lon": -74.0069468, "tags": {"addr:city": "New York", "addr:housenumber": "118", "addr:postcode": "10038", "addr:street": "Nassau Street", "amenity": "bar", "name": "Nassau Bar", "wheelchair": "yes"}}, {"type": "node", "id": 5209387823, "lat": 40.7178261, "lon": -73.9898544, "tags": {"amenity": "bar", "name": "Ten Bells"}}, {"type": "node", "id": 5322770746, "lat": 40.713588, "lon": -74.0081258, "tags": {"addr:housenumber": "17", "addr:street": "Murray Street", "amenity": "bar", "name": "Dark Horse", "website": "https://www.darkhorseny.com"}}, {"type": "node", "id": 5446733056, "lat": 40.7259518, "lon": -73.9891412, "tags": {"addr:city": "New York", "addr:housenumber": "86", "addr:postcode": "10003", "addr:state": "NY", "addr:street": "East 4th Street", "amenity": "bar", "name": "The Boiler Room", "opening_hours": "Mo-Su 16:00-04:00", "sport": "billiards", "toilets": "yes", "website": "https://www.theboilerroomnyc.com/", "wheelchair": "yes"}}, {"type": "node", "id": 5463758239, "lat": 40.7217163, "lon": -73.9931901, "tags": {"addr:housenumber": "217", "addr:street": "Bowery", "amenity": "bar", "name": "Katra Lounge", "opening_hours": "Th-Sa 17:00-04:00; Su 12:00-04:00; Tu 17:00-02:00; We 17:00-00:00", "phone": "+1-212-620-3033", "reservation": "recommended", "website": "http://www.katranyc.com/"}}, {"type": "node", "id": 5515185730, "lat": 40.7239715, "lon": -74.003139, "tags": {"addr:housenumber": "60", "addr:street": "Thompson Street", "amenity": "bar", "email": "events@mercerstreethospitality.com", "name": "The Gordon Bar", "opening_hours": "Mo-Su 17:00-02:00", "payment:credit_cards": "yes", "phone": "+1-212-219-3200", "toilets": "yes", "website": "https://www.thegordonbar.com/"}}, {"type": "node", "id": 5520366419, "lat": 40.7103321, "lon": -74.0164647, "tags": {"addr:housenumber": "301", "addr:street": "South End Avenue", "amenity": "bar", "name": "The Black Hound", "wheelchair": "yes"}}, {"type": "node", "id": 5593000021, "lat": 40.7198176, "lon": -74.0055821, "tags": {"addr:housenumber": "249", "addr:street": "West Broadway", "amenity": "bar", "brewery": "various", "name": "Anotheroom", "opening_hours": "Mo, We, Th 17:00-02:00; Tu, Su 16:00-02:00; Fr, Sa 17:00-04:00", "payment:cash": "yes", "payment:credit_cards": "yes", "phone": "+1-212-226-1418", "toilets": "yes", "website": "https://anotheroom.business.site/", "wheelchair": "yes"}}, {"type": "node", "id": 5593004899, "lat": 40.7197629, "lon": -74.005662, "tags": {"addr:housenumber": "247", "addr:street": "West Broadway", "amenity": "bar", "brewery": "various", "name": "Tribeca Tavern", "opening_hours": "Su 12:00-04:00; Mo-Sa 11:00-04:00", "payment:cash": "yes", "payment:credit_cards": "yes", "phone": "+1-212-941-7671", "sport": "yes", "toilets": "yes", "wheelchair": "yes"}}, {"type": "node", "id": 5632288423, "lat": 40.723034, "lon": -73.9920355, "tags": {"amenity": "bar", "name": "Roof Top at Public"}}, {"type": "node", "id": 5801870934, "lat": 40.7078151, "lon": -74.0086882, "tags": {"addr:housenumber": "28", "addr:street": "Liberty Street", "amenity": "bar", "cocktails": "yes", "contact:instagram": "manhatta_nyc", "drink:beer": "draught; bottled", "drink:wine": "served", "email": "info@manhattarestaurant.com", "level": "59", "name": "Manhatta", "phone": "+1 212-230-5788", "reservation": "yes", "website": "https://www.manhattarestaurant.com", "wheelchair": "limited"}}, {"type": "node", "id": 5847402986, "lat": 40.7213037, "lon": -73.9954744, "tags": {"addr:housenumber": "202", "addr:street": "Mott Street", "amenity": "bar", "name": "Balzem"}}, {"type": "node", "id": 5854333085, "lat": 40.7048976, "lon": -74.0123636, "tags": {"amenity": "bar", "name": "Juice vitality"}}, {"type": "node", "id": 5899626375, "lat": 40.7147395, "lon": -73.9908755, "tags": {"addr:housenumber": "35", "addr:street": "Canal Street", "amenity": "bar", "cocktails": "yes", "drink:beer": "yes", "drink:liquor": "yes", "drink:wine": "yes", "email": "info@clandestinonyc.com", "name": "Clandestino", "opening_hours": "Fr-Su 16:00-04:00; Mo-Th 19:00-04:00", "phone": "+1-212-475-5505", "toilets": "yes", "website": "https://clandestinonyc.com/"}}, {"type": "node", "id": 5957624985, "lat": 40.7171233, "lon": -73.9952844, "tags": {"addr:housenumber": "93", "addr:postcode": "10002", "addr:street": "Bowery", "amenity": "bar", "delivery": "yes", "drink:beer": "draught;bottled", "email": "info@kitchen93.com", "name": "The Bowery Beer Garden", "opening_hours": "Tu-Th 15:00-22:00; Fr 15:00-23:00; Sa 12:00-23:00; Su 12:00-21:00", "outdoor_seating": "yes", "phone": "+1 212-343-8111", "takeaway": "yes", "website": "https://www.thebowerybeergarden.com"}}, {"type": "node", "id": 5978556699, "lat": 40.7039818, "lon": -74.0125415, "tags": {"amenity": "bar", "name": "Murphy\u2019s Tavern", "wheelchair": "yes"}}, {"type": "node", "id": 5978556750, "lat": 40.7071162, "lon": -74.0081489, "tags": {"addr:housenumber": "25", "addr:street": "Cedar Street", "amenity": "bar", "name": "Cedar Local", "wheelchair": "limited"}}, {"type": "node", "id": 5978557699, "lat": 40.7102896, "lon": -74.0069766, "tags": {"addr:housenumber": "46", "addr:street": "Ann Street", "amenity": "bar", "name": "Ainsworth", "wheelchair": "yes"}}, {"type": "node", "id": 5978792516, "lat": 40.7147978, "lon": -74.009995, "tags": {"addr:housenumber": "66", "addr:street": "West Broadway", "amenity": "bar", "name": "Vir Sur Vingt", "wheelchair": "no"}}, {"type": "node", "id": 6030855499, "lat": 40.7149369, "lon": -74.0082862, "tags": {"addr:city": "New York", "addr:housenumber": "110", "addr:postcode": "10007", "addr:state": "NY", "addr:street": "Chambers Street", "amenity": "bar", "name": "The Patriot Saloon", "opening_hours": "Mo-Su 11:30-04:00", "operator": "The Patriot Saloon", "phone": "+1-212-748-1162"}}, {"type": "node", "id": 6222189346, "lat": 40.7254448, "lon": -73.9926303, "tags": {"addr:housenumber": "3", "addr:postcode": "10012", "addr:street": "Bleecker Street", "amenity": "bar", "cocktails": "yes", "description": "bar with basement dance floor and event space", "drink:beer": "draught", "drink:liquor": "yes", "drink:wine": "served", "name": "Von", "opening_hours": "Mo-Tu 16:00-02:00+; We-Sa 16:00-04:00; Su 16:00-02:00+", "phone": "+1-212-473-3039", "toilets": "yes", "toilets:unisex": "yes", "website": "https://vonbar.com"}}, {"type": "node", "id": 6231529913, "lat": 40.7139326, "lon": -73.9897603, "tags": {"addr:city": "New York", "addr:housenumber": "169", "addr:postcode": "10002", "addr:state": "NY", "addr:street": "East Broadway", "amenity": "bar", "description": "Unpretentious LES watering hole with palm trees, a leopard-print pool table and a small menu of oysters, borscht, and dumplings.", "name": "169 Bar", "opening_hours": "Mo-Su 12:00-04:00", "phone": "+1-646-833-7199", "website": "https://169barnyc.com"}}, {"type": "node", "id": 6233725914, "lat": 40.7194846, "lon": -73.9888709, "tags": {"addr:city": "New York", "addr:housenumber": "113", "addr:postcode": "10002", "addr:state": "NY", "addr:street": "Ludlow Street", "amenity": "bar", "description": "This basic, bi-level Bulgarian bar features live bands, DJs, and a subzero vodka room.", "name": "Mehanata Bulgarian Bar", "opening_hours": "Th-Sa 20:00-04:00", "phone": "(212) 625-0981", "website": "https://mehanata.com"}}, {"type": "node", "id": 6233803807, "lat": 40.7199647, "lon": -73.9882898, "tags": {"addr:city": "New York", "addr:housenumber": "101", "addr:postcode": "10002", "addr:state": "NY", "addr:street": "Rivington Street", "amenity": "bar", "brewery": "yes", "building": "yes", "name": "Pretty Ricky's", "opening_hours": "Mo-Su 17:00-02:00", "phone": "+1-646-429-3957", "website": "https://www.prettyrickys.com/"}}, {"type": "node", "id": 6233954065, "lat": 40.7194025, "lon": -73.9894514, "tags": {"addr:city": "New York", "addr:housenumber": "90", "addr:postcode": "10002", "addr:state": "NY", "addr:street": "Delancey Street", "amenity": "bar", "brewery": "yes", "cocktails": "yes", "description": "Iconic bar with arty fixtures, space for gallery shows and a separate space downstairs.", "name": "Max Fish", "wheelchair": "yes"}}, {"type": "node", "id": 6236928052, "lat": 40.7198154, "lon": -73.9903628, "tags": {"addr:housenumber": "123", "addr:postcode": "10002", "addr:street": "Allen Street", "amenity": "bar", "brewery": "yes", "cocktails": "yes", "description": "Draft beer and organic wine bar offering a simple menu of small plates in an intimate, rustic space.", "drink:beer": "served", "drink:wine": "served", "name": "Antler Beer & Wine Dispensary", "phone": "+1-212-432-5000", "website": "http://antlerdispensary.com", "wheelchair": "no"}}, {"type": "node", "id": 6236943854, "lat": 40.7210247, "lon": -73.9897308, "tags": {"addr:city": "New York", "addr:housenumber": "157", "addr:postcode": "10002", "addr:state": "NY", "addr:street": "Allen Street", "amenity": "bar", "description": "Serves hundreds of whiskeys and other liquors in a lean space with stand-up and sit-down bars.", "name": "Copper & Oak", "opening_hours": "Mo-Sa 17:00-01:00; Su 14:00-22:00", "phone": "(212) 460-5546", "website": "https://copperandoak.com", "wheelchair": "yes"}}, {"type": "node", "id": 6258099099, "lat": 40.7192847, "lon": -74.0042101, "tags": {"addr:housenumber": "31", "addr:street": "Walker Street", "amenity": "bar", "name": "A\u00f1ejo"}}, {"type": "node", "id": 6260920355, "lat": 40.7211962, "lon": -73.9889924, "tags": {"addr:city": "New York", "addr:housenumber": "168", "addr:postcode": "10002", "addr:state": "NY", "addr:street": "Allen Street", "amenity": "bar", "name": "The Fitting Room", "opening_hours": "Th-Fr 17:00-21:00; Sa-Su 15:00-21:00", "phone": "(212) 804-8088", "website": "https://fittingroomnyc.business.site"}}, {"type": "node", "id": 6342778286, "lat": 40.7224501, "lon": -74.0048185, "tags": {"addr:housenumber": "15", "addr:street": "Thompson Street", "amenity": "bar", "name": "Jimmy at The James", "wheelchair": "yes"}}, {"type": "node", "id": 6371402585, "lat": 40.7153692, "lon": -74.0069849, "tags": {"amenity": "bar", "name": "1803NYC"}}, {"type": "node", "id": 6371534686, "lat": 40.7256911, "lon": -73.9916718, "tags": {"amenity": "bar", "name": "The Bowery electric", "opening_hours:signed": "no", "website": "https://www.theboweryelectric.com/"}}, {"type": "node", "id": 6551670585, "lat": 40.7149012, "lon": -73.9986222, "tags": {"addr:housenumber": "33", "addr:street": "Pell Street", "amenity": "bar", "name": "Juicy"}}, {"type": "node", "id": 6568734440, "lat": 40.7157167, "lon": -73.9934918, "tags": {"amenity": "bar", "name": "Inhabit karaoke lounge"}}, {"type": "node", "id": 6568795185, "lat": 40.7219195, "lon": -73.9964292, "tags": {"addr:city": "New York", "addr:housenumber": "48", "addr:postcode": "10012", "addr:state": "NY", "addr:street": "Spring Street", "air_conditioning": "yes", "amenity": "bar", "brewery": "yes", "level": "0", "microbrewery": "no", "name": "Spring Lounge", "opening_hours": "Mo-Sa 08:00-04:00; Su 10:00-04:00", "outdoor_seating": "yes", "payment:cash": "yes", "payment:credit_cards": "yes", "phone": "+1-212-965-1774", "smoking": "no", "website": "http://thespringlounge.com/"}}, {"type": "node", "id": 6568807585, "lat": 40.7258103, "lon": -73.9981248, "tags": {"amenity": "bar", "name": "b&b winebar"}}, {"type": "node", "id": 6902874803, "lat": 40.7220111, "lon": -73.9924309, "tags": {"addr:postcode": "10002", "addr:street": "Freeman Alley", "amenity": "bar", "cocktails": "yes", "cuisine": "eclectic;seafood", "description": "small upstaris cocktail bar accessed through Freemans restaurant", "drink:beer": "yes", "drink:liquor": "yes", "drink:wine": "yes", "level": "1", "name": "Banzarbar", "opening_hours": "Mo-Th 18:00-24:00; Fr-Sa 18:00-02:00; Su 18:00-24:00", "opening_hours:kitchen": "Mo-Su 18:00-23:00", "operator": "Freeman's", "phone": "+1-212-420-0012", "website": "https://www.banzarbar.com"}}, {"type": "node", "id": 7047129386, "lat": 40.7194981, "lon": -73.993485, "tags": {"amenity": "bar", "cocktails": "yes", "description": "speakeasy cocktail bar accessed through SFA Gallery", "name": "Fig. 19", "opening_hours": "Tu-Th 18:00-02:00; Fr-Sa 18:00-04:00; Su 18:00-02:00", "website": "https://www.figurenineteen.com"}}, {"type": "node", "id": 7047818086, "lat": 40.7159358, "lon": -73.9966617, "tags": {"addr:housenumber": "50", "addr:postcode": "10013", "addr:street": "Bowery", "amenity": "bar", "cocktails": "yes", "cuisine": "snack", "drink:beer": "yes", "drink:liquor": "yes", "drink:wine": "yes", "level": "20", "name": "The Crown", "operator": "Hotel 50 Bowery", "outdoor_seating": "yes", "phone": "+1-646-630-8057", "website": "https://www.thecrownnyc.com"}}, {"type": "node", "id": 7047831585, "lat": 40.7024228, "lon": -73.9955097, "tags": {"addr:housenumber": "60", "addr:postcode": "11201", "addr:street": "Furman Street", "amenity": "bar", "name": "Harriet's Rooftop", "opening_hours": "Mo-Su 11:00-00:00", "website": "https://www.1hotels.com/brooklyn-bridge/taste/harriets-rooftop"}}, {"type": "node", "id": 7048181785, "lat": 40.7184609, "lon": -73.9898611, "tags": {"addr:postcode": "10002", "amenity": "bar", "name": "Excuse my french"}}, {"type": "node", "id": 7049620585, "lat": 40.7191934, "lon": -74.000084, "tags": {"addr:housenumber": "11", "addr:postcode": "10013", "addr:street": "Howard Street", "amenity": "bar", "name": "The Blonde"}}, {"type": "node", "id": 7075366387, "lat": 40.7204999, "lon": -73.9980785, "tags": {"addr:housenumber": "249", "addr:street": "Centre Street", "amenity": "bar", "cuisine": "charcuterie;snack;international", "drink:beer": "yes", "drink:sake": "yes", "drink:wine": "yes", "happy_hours": "Mo-Fr 17:00-18:00; Sa-Su 15:00-16:00", "name": "Compagnie des Vins Surnaturels", "opening_hours": "Mo-We 17:00-01:00; Th-Fr 17:00-02:00; Sa 15:00-02:00; Su 15:00-01:00", "opening_hours:kitchen": "Mo-We 17:00-00:30; Th-Fr 17:00-01:40; Sa 15:00-01:40; Su 15:00-23:40", "phone": "+1-212-343-3660", "website": "http://compagnienyc.com"}}, {"type": "node", "id": 7097867545, "lat": 40.7215883, "lon": -73.9883313, "tags": {"amenity": "bar", "name": "The Skinny Bar"}}, {"type": "node", "id": 7891049872, "lat": 40.7260124, "lon": -73.9893216, "tags": {"addr:housenumber": "68", "addr:postcode": "10003", "addr:street": "2nd Avenue", "amenity": "bar", "name": "The Watering Hole"}}, {"type": "node", "id": 8000650772, "lat": 40.724629, "lon": -73.9946134, "tags": {"addr:housenumber": "51", "addr:street": "East Houston Street", "amenity": "bar", "dog": "no", "happy_hours": "17:00-20:00", "name": "Milano's Bar", "toilets": "customers"}}, {"type": "node", "id": 8333736462, "lat": 40.7126108, "lon": -74.008134, "tags": {"amenity": "bar", "name": "Five & Dime"}}, {"type": "node", "id": 8511743557, "lat": 40.7261365, "lon": -74.0043283, "tags": {"addr:city": "New York", "addr:housenumber": "12", "addr:postcode": "10013", "addr:state": "NY", "addr:street": "Vandam Street", "amenity": "bar", "name": "Torch & Crown Brewing Company", "opening_hours": "Tu 12:00-19:00; We 12:00-22:00; Th,Fr 12:00-23:00; Sa 11:00-23:00; Su 11:00-20:00", "outdoor_seating": "yes", "phone": "+1-212-228-7005", "start_date": "2018", "website": "https://www.torchandcrown.com/"}}, {"type": "node", "id": 8607504514, "lat": 40.7030779, "lon": -73.9883028, "tags": {"amenity": "bar", "covered": "yes", "drink:beer": "yes", "drink:wine": "yes", "level": "0", "name": "Dumbo Station", "opening_hours": "Mo-Su 12:00-22:00; Nov-May off", "outdoor_seating": "only", "sport": "cornhole", "website": "https://www.thedumbostation.com"}}, {"type": "node", "id": 8648127118, "lat": 40.7185511, "lon": -74.0090368, "tags": {"amenity": "bar", "name": "Puffy\u2019s Tavern"}}, {"type": "node", "id": 8648175817, "lat": 40.7208602, "lon": -74.0098439, "tags": {"addr:housenumber": "399", "addr:street": "Greenwich Street", "amenity": "bar", "name": "Greenwich st. Tavern"}}, {"type": "node", "id": 8807180556, "lat": 40.7029844, "lon": -73.9905451, "tags": {"addr:city": "Brooklyn", "addr:housenumber": "43", "addr:postcode": "11201", "addr:state": "NY", "addr:street": "Main Street", "air_conditioning": "yes", "amenity": "bar", "brewery": "yes", "min_age": "21", "name": "Evil Twin Brewing DUMBO", "note:covid19": "Vaccinated individuals only", "opening_hours": "Mo-We 12:00-23:00; Th 12:00-24:00; Fr 12:00-01:00; Sa 10:00-01:00; Su 10:00-23:00", "outdoor_seating": "no", "website": "https://eviltwin.nyc", "wheelchair": "yes"}}, {"type": "node", "id": 8883795717, "lat": 40.7167711, "lon": -74.0074582, "tags": {"addr:housenumber": "66", "addr:street": "Thomas Street", "amenity": "bar", "name": "buddha-bar"}}, {"type": "node", "id": 9138110226, "lat": 40.7259782, "lon": -73.9950281, "tags": {"amenity": "bar", "name": "Bleecker Street Bar"}}, {"type": "node", "id": 9505710292, "lat": 40.7246444, "lon": -73.9932411, "tags": {"amenity": "bar", "name": "Tom & Jerry"}}, {"type": "node", "id": 9736034061, "lat": 40.7212474, "lon": -73.9942934, "tags": {"amenity": "bar", "name": "Sweet & Vicious"}}, {"type": "node", "id": 9978637389, "lat": 40.7258327, "lon": -73.9902044, "tags": {"addr:housenumber": "29", "addr:postcode": "10003", "addr:street": "East 3rd Street", "amenity": "bar", "cocktails": "yes", "cuisine": "pizza", "drink:beer": "draught", "drink:liquor": "yes", "drink:wine": "yes", "name": "Whiskey Town", "phone": "+1-212-505-7344"}}, {"type": "node", "id": 10077663950, "lat": 40.7192738, "lon": -74.0048357, "tags": {"addr:city": "New York", "addr:housenumber": "2", "addr:postcode": "10013", "addr:state": "NY", "addr:street": "6th Avenue", "addr:unit": "Cellar Level", "amenity": "bar", "description": "The subterranean jazz club, with its vaulted ceilings and exposed brick walls, was modeled after the bo\u00eetes of Paris. The venue consists of two cocktail bars, open dining space & a stage for live performances.", "email": "info@thedjangonyc.com", "min_age": "18", "name": "The Django", "opening_hours": "Mo-Su 19:00-2:00", "phone": "+1-212-519-6649", "website": "https://www.thedjangonyc.com/"}}, {"type": "node", "id": 10089881641, "lat": 40.7211455, "lon": -73.996916, "tags": {"amenity": "bar", "name": "Bar Pasquale", "website": "https://www.barpasquale.com"}}, {"type": "node", "id": 10090538380, "lat": 40.7221836, "lon": -74.0035553, "tags": {"amenity": "bar", "contact:facebook": "https://www.facebook.com/toadhallgrand/", "name": "Toad Hall"}}, {"type": "node", "id": 10101226877, "lat": 40.7237077, "lon": -74.009632, "tags": {"addr:city": "New York", "addr:housenumber": "458", "addr:postcode": "10013", "addr:state": "NY", "addr:street": "Greenwich Street", "amenity": "bar", "name": "North Bar"}}, {"type": "node", "id": 10286844703, "lat": 40.7194726, "lon": -73.9933546, "tags": {"amenity": "bar", "cocktails": "yes", "drink:beer": "draught", "happy_hours": "Mo-Th 18:00-20:30", "level": "-1", "name": "Home Sweet Home", "opening_hours": "Mo-Th 18:00-04:00; Fr-Sa 16:00-04:00; Su 20:00-04:00", "website": "https://www.homesweethomethebar.com"}}, {"type": "node", "id": 10314828707, "lat": 40.7193752, "lon": -73.9964618, "tags": {"addr:housenumber": "151", "addr:postcode": "10013", "addr:street": "Mott Street", "amenity": "bar", "cuisine": "charcuterie;italian", "drink:beer": "yes", "drink:coffee": "yes", "drink:espresso": "yes", "drink:tea": "yes", "drink:wine": "yes", "name": "C. DiPalo", "opening_hours": "Th-Su 18:30-23:00"}}, {"type": "node", "id": 10695076877, "lat": 40.7189483, "lon": -73.9940599, "tags": {"amenity": "bar", "name": "The Highlight Room", "opening_hours": "We 17:00-01:00, Th-Sa 17:00-04:00", "operator": "Moxy", "outdoor_seating": "roof"}}, {"type": "node", "id": 10757735011, "lat": 40.7226537, "lon": -73.9928275, "tags": {"amenity": "bar", "drink:beer": "yes", "drink:liquor": "yes", "drink:wine": "yes", "name": "Bar Veloce", "opening_hours": "Mo-Th 16:00-24:00, Fr-Sa 16:00-01:00; Su 16:00-24:00", "theme": "wine_bar", "website": "https://www.winebarveloce.com"}}, {"type": "node", "id": 10866135205, "lat": 40.7054271, "lon": -74.0074507, "tags": {"addr:city": "New York", "addr:floor": "25", "addr:housenumber": "120", "addr:postcode": "10005", "addr:state": "NY", "addr:street": "Water Street", "amenity": "bar", "email": "info@highwaterrooftop.com", "min_age": "21", "name": "Highwater Rooftop", "opening_hours": "Tu-Th 17:00-23:00; Fr-Sa 17:00-02:00; Su-Mo 17:00-22:00", "phone": "+1-646-869-6710", "website": "https://www.highwaterrooftop.com/"}}, {"type": "way", "id": 278245473, "nodes": [2826496755, 2826496745, 2826496744, 2826496748, 2826496762, 2826496756, 2826496763, 2826496757, 2826496760, 2826496755], "tags": {"addr:city": "New York", "addr:housenumber": "138", "addr:postcode": "10002", "addr:state": "NY", "addr:street": "Division Street", "amenity": "bar", "building": "yes", "height": "16.7", "nycdoitt:bin": "1003805"}}]}